STARLINK-11714 [DTC]    
1 64134U 25111M   25221.57480066  .00257901  00000+0  19441-2 0  9990
2 64134  43.0001 171.9894 0000905   1.8338 358.2533 15.70932200 13275
STARLINK-11712 [DTC]    
1 64135U 25111N   25221.88752511  .00339724  00000+0  25359-2 0  9991
2 64135  43.0007 170.9250 0002390 253.5070 106.5536 15.70918954 13318
STARLINK-34254          
1 64136U 25111P   25221.61951760  .00026825  00000+0  98053-3 0  9997
2 64136  42.9984 195.2145 0000890 274.3518  85.7232 15.27588126 13020
STARLINK-34230          
1 64137U 25111Q   25221.65164052  .00028871  00000+0  10528-2 0  9995
2 64137  43.0005 195.4578 0001691 279.9403  80.1258 15.27635035 13033
STARLINK-34129          
1 64138U 25111R   25221.65934170  .00013618  00000+0  50264-3 0  9997
2 64138  43.0006 195.5172 0002976 275.6866  84.3646 15.27631893 13089
STARLINK-34212          
1 64139U 25111S   25221.36824716  .00010455  00000+0  38872-3 0  9997
2 64139  42.9980 196.7686 0001145 270.4339  89.6381 15.27594494 12995
STARLINK-34149          
1 64140U 25111T   25221.37852893  .00013680  00000+0  50555-3 0  9992
2 64140  43.0004 196.8499 0001095 264.7429  95.3297 15.27591648 12997
STARLINK-34054          
1 64141U 25111U   25221.24518664  .00024212  00000+0  88614-3 0  9994
2 64141  42.9999 197.5686 0001791 282.1520  77.9131 15.27592086 12972
STARLINK-34195          
1 64142U 25111V   25221.62594182  .00030383  00000+0  11084-2 0  9998
2 64142  42.9992 195.2586 0000494 274.2337  85.8459 15.27599596 13039
STARLINK-34133          
1 64143U 25111W   25221.36054569  .00014190  00000+0  52390-3 0  9994
2 64143  42.9987 196.7084 0000948 256.0728 104.0018 15.27597552 12998
STARLINK-34181          
1 64144U 25111X   25221.38238554  .00016254  00000+0  59852-3 0  9998
2 64144  42.9994 196.8780 0000343 269.2076  90.8736 15.27599757 12990
STARLINK-34186          
1 64145U 25111Y   25220.99906084  .00017022  00000+0  62632-3 0  9999
2 64145  42.9995 199.1561 0001182 253.5669 106.5053 15.27598308 12933
STARLINK-34314          
1 64146U 25112A   25221.86905923  .00118511  00000+0  79230-2 0  9995
2 64146  97.6044 272.6983 0002189 119.3548 240.7898 15.06388561 12601
STARLINK-33926          
1 64147U 25112B   25221.58385045  .00005613  00000+0  38430-3 0  9998
2 64147  97.6028 272.4619 0001045  92.6681 267.4666 15.06474807 11392
STARLINK-34213          
1 64148U 25112C   25221.41075732  .00007094  00000+0  48469-3 0  9998
2 64148  97.6043 272.2301 0001604  98.1076 262.0334 15.06464342 11369
STARLINK-33924          
1 64149U 25112D   25221.68529649  .00005107  00000+0  35002-3 0  9991
2 64149  97.5998 272.4816 0000490 102.7291 257.3991 15.06484709 12573
