[{"OBJECT_NAME":"STARLINK-11714 [DTC]","OBJECT_ID":"2025-111M","EPOCH":"2025-08-09T13:47:42.777024","MEAN_MOTION":15.709322,"ECCENTRICITY":9.05e-5,"INCLINATION":43.0001,"RA_OF_ASC_NODE":171.9894,"ARG_OF_PERICENTER":1.8338,"MEAN_ANOMALY":358.2533,"EPHEMERIS_TYPE":0,"CLASSIFICATION_TYPE":"U","NORAD_CAT_ID":64134,"ELEMENT_SET_NO":999,"REV_AT_EPOCH":1327,"BSTAR":0.0019441,"MEAN_MOTION_DOT":0.00257901,"MEAN_MOTION_DDOT":0},{"OBJECT_NAME":"STARLINK-11712 [DTC]","OBJECT_ID":"2025-111N","EPOCH":"2025-08-09T21:18:02.169504","MEAN_MOTION":15.70918954,"ECCENTRICITY":0.000239,"INCLINATION":43.0007,"RA_OF_ASC_NODE":170.925,"ARG_OF_PERICENTER":253.507,"MEAN_ANOMALY":106.5536,"EPHEMERIS_TYPE":0,"CLASSIFICATION_TYPE":"U","NORAD_CAT_ID":64135,"ELEMENT_SET_NO":999,"REV_AT_EPOCH":1331,"BSTAR":0.0025359,"MEAN_MOTION_DOT":0.00339724,"MEAN_MOTION_DDOT":0},{"OBJECT_NAME":"STARLINK-34254","OBJECT_ID":"2025-111P","EPOCH":"2025-08-09T14:52:06.320640","MEAN_MOTION":15.27588126,"ECCENTRICITY":8.9e-5,"INCLINATION":42.9984,"RA_OF_ASC_NODE":195.2145,"ARG_OF_PERICENTER":274.3518,"MEAN_ANOMALY":85.7232,"EPHEMERIS_TYPE":0,"CLASSIFICATION_TYPE":"U","NORAD_CAT_ID":64136,"ELEMENT_SET_NO":999,"REV_AT_EPOCH":1302,"BSTAR":0.00098053,"MEAN_MOTION_DOT":0.00026825,"MEAN_MOTION_DDOT":0},{"OBJECT_NAME":"STARLINK-34230","OBJECT_ID":"2025-111Q","EPOCH":"2025-08-09T15:38:21.740928","MEAN_MOTION":15.27635035,"ECCENTRICITY":0.0001691,"INCLINATION":43.0005,"RA_OF_ASC_NODE":195.4578,"ARG_OF_PERICENTER":279.9403,"MEAN_ANOMALY":80.1258,"EPHEMERIS_TYPE":0,"CLASSIFICATION_TYPE":"U","NORAD_CAT_ID":64137,"ELEMENT_SET_NO":999,"REV_AT_EPOCH":1303,"BSTAR":0.0010528,"MEAN_MOTION_DOT":0.00028871,"MEAN_MOTION_DDOT":0},{"OBJECT_NAME":"STARLINK-34129","OBJECT_ID":"2025-111R","EPOCH":"2025-08-09T15:49:27.122880","MEAN_MOTION":15.27631893,"ECCENTRICITY":0.0002976,"INCLINATION":43.0006,"RA_OF_ASC_NODE":195.5172,"ARG_OF_PERICENTER":275.6866,"MEAN_ANOMALY":84.3646,"EPHEMERIS_TYPE":0,"CLASSIFICATION_TYPE":"U","NORAD_CAT_ID":64138,"ELEMENT_SET_NO":999,"REV_AT_EPOCH":1308,"BSTAR":0.00050264,"MEAN_MOTION_DOT":0.00013618,"MEAN_MOTION_DDOT":0},{"OBJECT_NAME":"STARLINK-34212","OBJECT_ID":"2025-111S","EPOCH":"2025-08-09T08:50:16.554624","MEAN_MOTION":15.27594494,"ECCENTRICITY":0.0001145,"INCLINATION":42.998,"RA_OF_ASC_NODE":196.7686,"ARG_OF_PERICENTER":270.4339,"MEAN_ANOMALY":89.6381,"EPHEMERIS_TYPE":0,"CLASSIFICATION_TYPE":"U","NORAD_CAT_ID":64139,"ELEMENT_SET_NO":999,"REV_AT_EPOCH":1299,"BSTAR":0.00038872,"MEAN_MOTION_DOT":0.00010455,"MEAN_MOTION_DDOT":0},{"OBJECT_NAME":"STARLINK-34149","OBJECT_ID":"2025-111T","EPOCH":"2025-08-09T09:05:04.899552","MEAN_MOTION":15.27591648,"ECCENTRICITY":0.0001095,"INCLINATION":43.0004,"RA_OF_ASC_NODE":196.8499,"ARG_OF_PERICENTER":264.7429,"MEAN_ANOMALY":95.3297,"EPHEMERIS_TYPE":0,"CLASSIFICATION_TYPE":"U","NORAD_CAT_ID":64140,"ELEMENT_SET_NO":999,"REV_AT_EPOCH":1299,"BSTAR":0.00050555,"MEAN_MOTION_DOT":0.0001368,"MEAN_MOTION_DDOT":0},{"OBJECT_NAME":"STARLINK-34054","OBJECT_ID":"2025-111U","EPOCH":"2025-08-09T05:53:04.125696","MEAN_MOTION":15.27592086,"ECCENTRICITY":0.0001791,"INCLINATION":42.9999,"RA_OF_ASC_NODE":197.5686,"ARG_OF_PERICENTER":282.152,"MEAN_ANOMALY":77.9131,"EPHEMERIS_TYPE":0,"CLASSIFICATION_TYPE":"U","NORAD_CAT_ID":64141,"ELEMENT_SET_NO":999,"REV_AT_EPOCH":1297,"BSTAR":0.00088614,"MEAN_MOTION_DOT":0.00024212,"MEAN_MOTION_DDOT":0},{"OBJECT_NAME":"STARLINK-34195","OBJECT_ID":"2025-111V","EPOCH":"2025-08-09T15:01:21.373248","MEAN_MOTION":15.27599596,"ECCENTRICITY":4.94e-5,"INCLINATION":42.9992,"RA_OF_ASC_NODE":195.2586,"ARG_OF_PERICENTER":274.2337,"MEAN_ANOMALY":85.8459,"EPHEMERIS_TYPE":0,"CLASSIFICATION_TYPE":"U","NORAD_CAT_ID":64142,"ELEMENT_SET_NO":999,"REV_AT_EPOCH":1303,"BSTAR":0.0011084,"MEAN_MOTION_DOT":0.00030383,"MEAN_MOTION_DDOT":0},{"OBJECT_NAME":"STARLINK-34133","OBJECT_ID":"2025-111W","EPOCH":"2025-08-09T08:39:11.147616","MEAN_MOTION":15.27597552,"ECCENTRICITY":9.48e-5,"INCLINATION":42.9987,"RA_OF_ASC_NODE":196.7084,"ARG_OF_PERICENTER":256.0728,"MEAN_ANOMALY":104.0018,"EPHEMERIS_TYPE":0,"CLASSIFICATION_TYPE":"U","NORAD_CAT_ID":64143,"ELEMENT_SET_NO":999,"REV_AT_EPOCH":1299,"BSTAR":0.0005239,"MEAN_MOTION_DOT":0.0001419,"MEAN_MOTION_DDOT":0},{"OBJECT_NAME":"STARLINK-34181","OBJECT_ID":"2025-111X","EPOCH":"2025-08-09T09:10:38.110656","MEAN_MOTION":15.27599757,"ECCENTRICITY":3.43e-5,"INCLINATION":42.9994,"RA_OF_ASC_NODE":196.878,"ARG_OF_PERICENTER":269.2076,"MEAN_ANOMALY":90.8736,"EPHEMERIS_TYPE":0,"CLASSIFICATION_TYPE":"U","NORAD_CAT_ID":64144,"ELEMENT_SET_NO":999,"REV_AT_EPOCH":1299,"BSTAR":0.00059852,"MEAN_MOTION_DOT":0.00016254,"MEAN_MOTION_DDOT":0},{"OBJECT_NAME":"STARLINK-34186","OBJECT_ID":"2025-111Y","EPOCH":"2025-08-08T23:58:38.856576","MEAN_MOTION":15.27598308,"ECCENTRICITY":0.0001182,"INCLINATION":42.9995,"RA_OF_ASC_NODE":199.1561,"ARG_OF_PERICENTER":253.5669,"MEAN_ANOMALY":106.5053,"EPHEMERIS_TYPE":0,"CLASSIFICATION_TYPE":"U","NORAD_CAT_ID":64145,"ELEMENT_SET_NO":999,"REV_AT_EPOCH":1293,"BSTAR":0.00062632,"MEAN_MOTION_DOT":0.00017022,"MEAN_MOTION_DDOT":0},{"OBJECT_NAME":"STARLINK-34314","OBJECT_ID":"2025-112A","EPOCH":"2025-08-09T20:51:26.717472","MEAN_MOTION":15.06388561,"ECCENTRICITY":0.0002189,"INCLINATION":97.6044,"RA_OF_ASC_NODE":272.6983,"ARG_OF_PERICENTER":119.3548,"MEAN_ANOMALY":240.7898,"EPHEMERIS_TYPE":0,"CLASSIFICATION_TYPE":"U","NORAD_CAT_ID":64146,"ELEMENT_SET_NO":999,"REV_AT_EPOCH":1260,"BSTAR":0.007923,"MEAN_MOTION_DOT":0.00118511,"MEAN_MOTION_DDOT":0},{"OBJECT_NAME":"STARLINK-33926","OBJECT_ID":"2025-112B","EPOCH":"2025-08-09T14:00:44.678880","MEAN_MOTION":15.06474807,"ECCENTRICITY":0.0001045,"INCLINATION":97.6028,"RA_OF_ASC_NODE":272.4619,"ARG_OF_PERICENTER":92.6681,"MEAN_ANOMALY":267.4666,"EPHEMERIS_TYPE":0,"CLASSIFICATION_TYPE":"U","NORAD_CAT_ID":64147,"ELEMENT_SET_NO":999,"REV_AT_EPOCH":1139,"BSTAR":0.0003843,"MEAN_MOTION_DOT":5.613e-5,"MEAN_MOTION_DDOT":0},{"OBJECT_NAME":"STARLINK-34213","OBJECT_ID":"2025-112C","EPOCH":"2025-08-09T09:51:29.432448","MEAN_MOTION":15.06464342,"ECCENTRICITY":0.0001604,"INCLINATION":97.6043,"RA_OF_ASC_NODE":272.2301,"ARG_OF_PERICENTER":98.1076,"MEAN_ANOMALY":262.0334,"EPHEMERIS_TYPE":0,"CLASSIFICATION_TYPE":"U","NORAD_CAT_ID":64148,"ELEMENT_SET_NO":999,"REV_AT_EPOCH":1136,"BSTAR":0.00048469,"MEAN_MOTION_DOT":7.094e-5,"MEAN_MOTION_DDOT":0},{"OBJECT_NAME":"STARLINK-33924","OBJECT_ID":"2025-112D","EPOCH":"2025-08-09T16:26:49.616736","MEAN_MOTION":15.06484709,"ECCENTRICITY":4.9e-5,"INCLINATION":97.5998,"RA_OF_ASC_NODE":272.4816,"ARG_OF_PERICENTER":102.7291,"MEAN_ANOMALY":257.3991,"EPHEMERIS_TYPE":0,"CLASSIFICATION_TYPE":"U","NORAD_CAT_ID":64149,"ELEMENT_SET_NO":999,"REV_AT_EPOCH":1257,"BSTAR":0.00035002,"MEAN_MOTION_DOT":5.107e-5,"MEAN_MOTION_DDOT":0}]
